line1,line2,validFromUtcTime
1 00000U 00000E   26001.00000000  .00000000  00000-0  27772-4 0    01,2 00000  88.8732 120.3344 0010155 269.4887 120.4399 13.55333044    00,2026-01-01T00:00:00Z
1 00000U 00000E   26002.00000000  .00000000  00000-0  27772-4 0    02,2 00000  88.8732 120.2198 0010155 266.5787 319.6373 13.55333082    09,2026-01-02T00:00:00Z
